[{"OBJECT_NAME":"STARLINK-2454","OBJECT_ID":"2021-027AA","EPOCH":"2026-03-09T13:45:47.366496","MEAN_MOTION":15.3018945,"ECCENTRICITY":0.0001501,"INCLINATION":53.1618,"RA_OF_ASC_NODE":165.8028,"ARG_OF_PERICENTER":80.817,"MEAN_ANOMALY":279.3,"EPHEMERIS_TYPE":0,"CLASSIFICATION_TYPE":"U","NORAD_CAT_ID":48116,"ELEMENT_SET_NO":999,"REV_AT_EPOCH":27249,"BSTAR":5.7234e-7,"MEAN_MOTION_DOT":-3.42e-6,"MEAN_MOTION_DDOT":0},{"OBJECT_NAME":"CZ-6A DEB","OBJECT_ID":"2024-140PU","EPOCH":"2026-03-09T02:24:11.901600","MEAN_MOTION":14.96529453,"ECCENTRICITY":0.01989751,"INCLINATION":89.1479,"RA_OF_ASC_NODE":289.7131,"ARG_OF_PERICENTER":96.8489,"MEAN_ANOMALY":265.5425,"EPHEMERIS_TYPE":0,"CLASSIFICATION_TYPE":"U","NORAD_CAT_ID":61126,"ELEMENT_SET_NO":999,"REV_AT_EPOCH":8404,"BSTAR":0.00070354239,"MEAN_MOTION_DOT":0.00012037,"MEAN_MOTION_DDOT":0}]
